KUIPER-00061            
1 64521U 25134X   25199.31842386  .00020231  00000+0  59011-3 0  9990
2 64521  51.8725 211.1206 0005303 195.1078 164.9751 15.35320838  5054
KUIPER-00062            
1 64522U 25134Y   25199.44327439  .00020577  00000+0  59394-3 0  9999
2 64522  51.8749 210.4605 0004517 185.5211 174.5726 15.35642131  5089
KUIPER-00063            
1 64523U 25134Z   25199.30476437  .00025234  00000+0  71268-3 0  9997
2 64523  51.8748 211.0330 0002499 158.8180 201.2910 15.36204246  5069
KUIPER-00064            
1 64524U 25134AA  25199.42601526  .00023484  00000+0  65127-3 0  9992
2 64524  51.8778 210.3472 0001334 101.5524 258.5612 15.36816352  5089
KUIPER-00065            
1 64525U 25134AB  25199.33083211  .00015230  00000+0  45733-3 0  9999
2 64525  51.8700 211.1951 0008168 199.2465 160.8213 15.34599985  5053
KUIPER-00066            
1 64526U 25134AC  25199.30002206  .00012102  00000+0  34424-3 0  9992
2 64526  51.8768 211.0036 0001443 123.5676 236.5448 15.36542933  5069
